STARLINK-35324          
1 65838U 25221R   26196.43788381  .00011272  00000+0  34429-3 0  9995
2 65838  53.1579 214.8675 0001331  70.9043 289.2104 15.34395509 44295
STARLINK-35102          
1 65839U 25221S   26196.42687786  .00015559  00000+0  47033-3 0  9999
2 65839  53.1559 213.3787 0001169  98.5311 261.5824 15.34423214 44315
STARLINK-35364          
1 65840U 25221T   26196.38480921  .00008057  00000+0  24933-3 0  9997
2 65840  53.1565 213.1183 0001225  92.5480 267.5662 15.34399427 44310
STARLINK-35298          
1 65842U 25221V   26196.27557418  .00005177  00000+0  16427-3 0  9992
2 65842  53.1561 213.8589 0002765 354.6533   5.4439 15.34395467 44294
STARLINK-35301          
1 65843U 25221W   26196.52560003  .00013456  00000+0  40860-3 0  9992
2 65843  53.1575 212.5744 0001233  71.7068 288.4069 15.34404624 44331
STARLINK-35148          
1 65844U 25221X   26196.45835986  .00010164  00000+0  31149-3 0  9993
2 65844  53.1565 212.8677 0001107  85.4600 274.6529 15.34405775 44328
STARLINK-35302          
1 65845U 25221Y   26196.38901666  .00008014  00000+0  24804-3 0  9996
2 65845  53.1565 213.1436 0001164  80.9351 279.1783 15.34404120 44316
STARLINK-35290          
1 65846U 25221Z   26196.48781715  .00011402  00000+0  34808-3 0  9999
2 65846  53.1572 213.0449 0000803  82.7858 277.3236 15.34399853 44329
STARLINK-35262          
1 65847U 25221AA  26196.46523223  .00006351  00000+0  19893-3 0  9990
2 65847  53.1584 215.0357 0000942  73.4520 286.6586 15.34398626 45644
STARLINK-35308          
1 65848U 25221AB  26196.33861061  .00004558  00000+0  14590-3 0  9998
2 65848  53.1567 213.5390 0000923  85.2963 274.8145 15.34409630 45656
STARLINK-35231          
1 65849U 25221AC  26196.57657010  .00012123  00000+0  36933-3 0  9994
2 65849  53.1578 214.3075 0001273  76.9566 283.1579 15.34402433 45662
STARLINK-35252          
1 65850U 25221AD  26196.58335648  .00047739  00000+0  14204-2 0  9994
2 65850  53.1577 214.6440 0000571 180.8387  30.7963 15.34282008  5852
STARLINK-35208          
1 65854U 25223A   26196.06534922  .00016973  00000+0  51228-3 0  9993
2 65854  53.1587  60.6767 0001415  95.8242 264.2922 15.34402436 43738
STARLINK-35200          
1 65855U 25223B   26196.04412302  .00020968  00000+0  71742-3 0  9991
2 65855  53.1592  62.6673 0001205  83.5113 276.6025 15.30229224 43707
STARLINK-35459          
1 65856U 25223C   26195.99600204  .00013595  00000+0  41268-3 0  9993
2 65856  53.1587  60.9537 0001253  84.6900 275.4246 15.34407186 43724
STARLINK-35489          
1 65857U 25223D   26195.89098185  .00008369  00000+0  25855-3 0  9999
2 65857  53.1595  61.7183 0001245  77.6698 282.4444 15.34401161 43700
STARLINK-35199          
1 65858U 25223E   26195.89870855  .00006007  00000+0  21480-3 0  9999
2 65858  53.1597  63.1810 0001238  94.0734 266.0408 15.30198004 43682
STARLINK-35408          
1 65859U 25223F   26196.02758591  .00021720  00000+0  65210-3 0  9996
2 65859  53.1590  61.1514 0001128  80.5829 279.5301 15.34400825 43725
STARLINK-35303          
1 65860U 25223G   26195.89308602  .00006715  00000+0  20968-3 0  9994
2 65860  53.1594  61.7307 0001200  76.8503 283.2634 15.34400039 43701
STARLINK-35258          
1 65861U 25223H   26196.00231574  .00008449  00000+0  26089-3 0  9998
2 65861  53.1592  60.9902 0001319  97.0137 263.1015 15.34402532 43723
STARLINK-35386          
1 65862U 25223J   26196.05281386  .00021628  00000+0  64931-3 0  9992
2 65862  53.1584  61.3042 0001216  98.7455 261.3685 15.34404094 43720
STARLINK-35469          
1 65863U 25223K   26196.01073614  .00007219  00000+0  22462-3 0  9995
2 65863  53.1593  61.0435 0001341  94.1869 265.9287 15.34396041 43722
STARLINK-35471          
1 65864U 25223L   26195.95663744  .00009323  00000+0  32646-3 0  9990
2 65864  53.1599  62.8308 0001480  84.6221 275.4949 15.30204643 43696
STARLINK-35475          
1 65865U 25223M   26196.07165773  .00011694  00000+0  35661-3 0  9998
2 65865  53.1592  60.7091 0001166  90.9509 269.1628 15.34407638 43738
STARLINK-35312          
1 65866U 25223N   26196.01704660  .00007472  00000+0  23208-3 0  9990
2 65866  53.1592  61.0785 0001205 100.9948 259.1191 15.34397485 43727
STARLINK-35456          
1 65867U 25223P   26195.89976273  .00010667  00000+0  37148-3 0  9995
2 65867  53.1596  63.1821 0001162 104.6109 255.5021 15.30225028 43684
STARLINK-35450          
1 65868U 25223Q   26196.00863125  .00009430  00000+0  28988-3 0  9999
2 65868  53.1602  61.0311 0001442  81.2237 278.8929 15.34399310 43727
STARLINK-35441          
1 65869U 25223R   26196.02545264 -.00000008  00000+0  10899-4 0  9999
2 65869  53.1595  61.1341 0000882 106.1562 253.9538 15.34382588 43727
STARLINK-35433          
1 65870U 25223S   26196.02616700  .00009485  00000+0  33187-3 0  9996
2 65870  53.1601  62.5521 0001028  94.8906 265.2212 15.30208414 43715
STARLINK-35465          
1 65871U 25223T   26196.03883551  .00016180  00000+0  55706-3 0  9999
2 65871  53.1590  62.6317 0001147  66.0780 294.0341 15.30208906 43708
