OBJECT_NAME,OBJECT_ID,EPOCH,MEAN_MOTION,ECCENTRICITY,INCLINATION,RA_OF_ASC_NODE,ARG_OF_PERICENTER,MEAN_ANOMALY,EPHEMERIS_TYPE,CLASSIFICATION_TYPE,NORAD_CAT_ID,ELEMENT_SET_NO,REV_AT_EPOCH,BSTAR,MEAN_MOTION_DOT,MEAN_MOTION_DDOT
STARLINK-35324,2025-221R,2026-07-15T10:30:33.161184,15.34395509,.00013311,53.1579,214.8675,70.9043,289.2104,0,U,65838,999,4429,.34429003E-3,.11272E-3,0
STARLINK-35102,2025-221S,2026-07-15T10:14:42.247104,15.34423214,.00011695,53.1559,213.3787,98.5311,261.5824,0,U,65839,999,4431,.47032729E-3,.15559E-3,0
STARLINK-35364,2025-221T,2026-07-15T09:14:07.515744,15.34399427,.0001225,53.1565,213.1183,92.5480,267.5662,0,U,65840,999,4431,.24932642E-3,.8057E-4,0
STARLINK-35298,2025-221V,2026-07-15T06:36:49.609152,15.34395467,.00027655,53.1561,213.8589,354.6533,5.4439,0,U,65842,999,4429,.16427309E-3,.5177E-4,0
STARLINK-35301,2025-221W,2026-07-15T12:36:51.842592,15.34404624,.00012336,53.1575,212.5744,71.7068,288.4069,0,U,65843,999,4433,.4086001E-3,.13456E-3,0
STARLINK-35148,2025-221X,2026-07-15T11:00:02.291904,15.34405775,.00011075,53.1565,212.8677,85.4600,274.6529,0,U,65844,999,4432,.31149003E-3,.10164E-3,0
STARLINK-35302,2025-221Y,2026-07-15T09:20:11.039424,15.34404120,.0001164,53.1565,213.1436,80.9351,279.1783,0,U,65845,999,4431,.24804447E-3,.8014E-4,0
STARLINK-35290,2025-221Z,2026-07-15T11:42:27.401760,15.34399853,.00008037,53.1572,213.0449,82.7858,277.3236,0,U,65846,999,4432,.34808421E-3,.11402E-3,0
STARLINK-35262,2025-221AA,2026-07-15T11:09:56.064672,15.34398626,.00009423,53.1584,215.0357,73.4520,286.6586,0,U,65847,999,4564,.1989318E-3,.6351E-4,0
STARLINK-35308,2025-221AB,2026-07-15T08:07:35.956704,15.34409630,.00009233,53.1567,213.5390,85.2963,274.8145,0,U,65848,999,4565,.14590491E-3,.4558E-4,0
STARLINK-35231,2025-221AC,2026-07-15T13:50:15.656640,15.34402433,.00012731,53.1578,214.3075,76.9566,283.1579,0,U,65849,999,4566,.36932668E-3,.12123E-3,0
STARLINK-35252,2025-221AD,2026-07-15T14:00:01.999872,15.34282008,.00005718,53.1577,214.6440,180.8387,30.7963,0,U,65850,999,585,.14203817E-2,.47739E-3,0
STARLINK-35208,2025-223A,2026-07-15T01:34:06.172608,15.34402436,.00014155,53.1587,60.6767,95.8242,264.2922,0,U,65854,999,4373,.51228395E-3,.16973E-3,0
STARLINK-35200,2025-223B,2026-07-15T01:03:32.228928,15.30229224,.00012053,53.1592,62.6673,83.5113,276.6025,0,U,65855,999,4370,.71741518E-3,.20968E-3,0
STARLINK-35459,2025-223C,2026-07-14T23:54:14.576256,15.34407186,.00012532,53.1587,60.9537,84.6900,275.4246,0,U,65856,999,4372,.41267729E-3,.13595E-3,0
STARLINK-35489,2025-223D,2026-07-14T21:23:00.831840,15.34401161,.0001245,53.1595,61.7183,77.6698,282.4444,0,U,65857,999,4370,.25855E-3,.8369E-4,0
STARLINK-35199,2025-223E,2026-07-14T21:34:08.418720,15.30198004,.0001238,53.1597,63.1810,94.0734,266.0408,0,U,65858,999,4368,.2148E-3,.6007E-4,0
STARLINK-35408,2025-223F,2026-07-15T00:39:43.422624,15.34400825,.00011287,53.1590,61.1514,80.5829,279.5301,0,U,65859,999,4372,.6521023E-3,.2172E-3,0
STARLINK-35303,2025-223G,2026-07-14T21:26:02.632128,15.34400039,.00012,53.1594,61.7307,76.8503,283.2634,0,U,65860,999,4370,.20968E-3,.6715E-4,0
STARLINK-35258,2025-223H,2026-07-15T00:03:20.079936,15.34402532,.0001319,53.1592,60.9902,97.0137,263.1015,0,U,65861,999,4372,.26089291E-3,.8449E-4,0
STARLINK-35386,2025-223J,2026-07-15T01:16:03.117504,15.34404094,.00012168,53.1584,61.3042,98.7455,261.3685,0,U,65862,999,4372,.6493135E-3,.21628E-3,0
STARLINK-35469,2025-223K,2026-07-15T00:15:27.602496,15.34396041,.00013419,53.1593,61.0435,94.1869,265.9287,0,U,65863,999,4372,.22462204E-3,.7219E-4,0
STARLINK-35471,2025-223L,2026-07-14T22:57:33.474816,15.30204643,.00014808,53.1599,62.8308,84.6221,275.4949,0,U,65864,999,4369,.32645954E-3,.9323E-4,0
STARLINK-35475,2025-223M,2026-07-15T01:43:11.227872,15.34407638,.0001166,53.1592,60.7091,90.9509,269.1628,0,U,65865,999,4373,.35661187E-3,.11694E-3,0
STARLINK-35312,2025-223N,2026-07-15T00:24:32.826240,15.34397485,.00012056,53.1592,61.0785,100.9948,259.1191,0,U,65866,999,4372,.23207609E-3,.7472E-4,0
STARLINK-35456,2025-223P,2026-07-14T21:35:39.499872,15.30225028,.0001162,53.1596,63.1821,104.6109,255.5021,0,U,65867,999,4368,.37148E-3,.10667E-3,0
STARLINK-35450,2025-223Q,2026-07-15T00:12:25.740000,15.34399310,.0001442,53.1602,61.0311,81.2237,278.8929,0,U,65868,999,4372,.28987966E-3,.943E-4,0
STARLINK-35441,2025-223R,2026-07-15T00:36:39.108096,15.34382588,.00008826,53.1595,61.1341,106.1562,253.9538,0,U,65869,999,4372,.10899115E-4,-.8E-7,0
STARLINK-35433,2025-223S,2026-07-15T00:37:40.828800,15.30208414,.00010287,53.1601,62.5521,94.8906,265.2212,0,U,65870,999,4371,.33187414E-3,.9485E-4,0
STARLINK-35465,2025-223T,2026-07-15T00:55:55.388064,15.30208906,.00011473,53.1590,62.6317,66.0780,294.0341,0,U,65871,999,4370,.55706092E-3,.1618E-3,0
